BRITE-AUSTRIA           
1 39091U 13009F   23116.76971433  .00000298  00000+0  11854-3 0  9998
2 39091  98.3941 310.7564 0011553  67.5462 292.6947 14.35459504532378
UNIBRITE                
1 39092U 13009G   23116.81949297  .00000314  00000+0  12419-3 0  9995
2 39092  98.3978 310.6297 0010427  63.6479 296.5776 14.35331732532336
SOMP                    
1 39134U 13015E   23117.18977266  .00082964  00000+0  13101-2 0  9996
2 39134  64.8509 100.2533 0016077 261.2627  98.6695 15.52887580555428
BEESAT-3                
1 39135U 13015F   23116.70702833  .00030418  00000+0  77668-3 0  9996
2 39135  64.8586 149.2904 0021759 248.4686 111.4132 15.39128202554001
BEESAT-2                
1 39136U 13015G   23116.85381119  .00029181  00000+0  80588-3 0  9993
2 39136  64.8684 159.5799 0026573 283.2286  76.5885 15.36608119553786
NEE-01 PEGASO           
1 39151U 13018B   23117.03355237  .00002600  00000+0  32980-3 0  9996
2 39151  98.0026 227.1434 0015126 321.5176  38.4958 14.82521915540115
CUBEBUG-1 (CAPITAN BETO)
1 39153U 13018D   23117.13334832  .00003381  00000+0  41662-3 0  9991
2 39153  98.0313 233.0231 0014831 314.5332  45.4669 14.83530156540301
ESTCUBE 1               
1 39161U 13021C   23117.45101451  .00001877  00000+0  29199-3 0  9997
2 39161  97.8700 191.1581 0010075 128.2189 231.9906 14.74120403535709
FENGYUN 3C              
1 39260U 13052A   23117.15599030  .00000196  00000+0  11972-3 0  9995
2 39260  98.4317 133.9950 0012419  90.5338 269.7255 14.16027662496313
CASSIOPE                
1 39265U 13055A   23117.58522428  .00024015  00000+0  58472-3 0  9999
2 39265  80.9581 291.8665 0577853 100.7034 265.9737 14.50065694497622
ZACUBE-1 (TSHEPISOSAT)  
1 39417U 13066B   23116.67813300  .00003266  00000+0  38206-3 0  9999
2 39417  97.6817  80.1793 0057136  96.6192 264.1531 14.84563101509556
CINEMA-3 (KHUSAT-2)     
1 39426U 13066L   23117.36334915  .00002304  00000+0  35258-3 0  9992
2 39426  97.8258  49.3184 0099998 310.5866  48.6671 14.71357250505677
TRITON-1                
1 39427U 13066M   23117.35428055  .00003903  00000+0  59232-3 0  9995
2 39427  97.8336  45.1473 0108136 341.4958  18.2329 14.70737986505074
DELFI-N3XT              
1 39428U 13066N   23116.73174246  .00006343  00000+0  92035-3 0  9996
2 39428  97.8319  43.4114 0111667 355.7009   4.3229 14.72136500504562
GOMX-1                  
1 39430U 13066Q   23117.60035587  .00002997  00000+0  52537-3 0  9994
2 39430  97.7855  11.6850 0147116 132.9738 228.3942 14.61581204502151
BRITE-PL1 (LEM)         
1 39431U 13066R   23116.77898109  .00000696  00000+0  15646-3 0  9993
2 39431  97.6806 307.2705 0199487 337.6044  21.6529 14.47885083497695
ICUBE-1                 
1 39432U 13066S   23117.49833532  .00005360  00000+0  49137-3 0  9998
2 39432  97.4836 110.6773 0027627 294.3453  65.4885 14.95010483512772
