[{"OBJECT_NAME":"BRITE-AUSTRIA","OBJECT_ID":"2013-009F","EPOCH":"2023-04-26T18:28:23.318112","MEAN_MOTION":14.35459504,"ECCENTRICITY":0.0011553,"INCLINATION":98.3941,"RA_OF_ASC_NODE":310.7564,"ARG_OF_PERICENTER":67.5462,"MEAN_ANOMALY":292.6947,"EPHEMERIS_TYPE":0,"CLASSIFICATION_TYPE":"U","NORAD_CAT_ID":39091,"ELEMENT_SET_NO":999,"REV_AT_EPOCH":53237,"BSTAR":0.00011854,"MEAN_MOTION_DOT":2.98e-6,"MEAN_MOTION_DDOT":0},{"OBJECT_NAME":"UNIBRITE","OBJECT_ID":"2013-009G","EPOCH":"2023-04-26T19:40:04.192608","MEAN_MOTION":14.35331732,"ECCENTRICITY":0.0010427,"INCLINATION":98.3978,"RA_OF_ASC_NODE":310.6297,"ARG_OF_PERICENTER":63.6479,"MEAN_ANOMALY":296.5776,"EPHEMERIS_TYPE":0,"CLASSIFICATION_TYPE":"U","NORAD_CAT_ID":39092,"ELEMENT_SET_NO":999,"REV_AT_EPOCH":53233,"BSTAR":0.00012419,"MEAN_MOTION_DOT":3.14e-6,"MEAN_MOTION_DDOT":0},{"OBJECT_NAME":"SOMP","OBJECT_ID":"2013-015E","EPOCH":"2023-04-27T04:33:16.357824","MEAN_MOTION":15.5288758,"ECCENTRICITY":0.0016077,"INCLINATION":64.8509,"RA_OF_ASC_NODE":100.2533,"ARG_OF_PERICENTER":261.2627,"MEAN_ANOMALY":98.6695,"EPHEMERIS_TYPE":0,"CLASSIFICATION_TYPE":"U","NORAD_CAT_ID":39134,"ELEMENT_SET_NO":999,"REV_AT_EPOCH":55542,"BSTAR":0.0013101,"MEAN_MOTION_DOT":0.00082964,"MEAN_MOTION_DDOT":0},{"OBJECT_NAME":"BEESAT-3","OBJECT_ID":"2013-015F","EPOCH":"2023-04-26T16:58:07.247712","MEAN_MOTION":15.39128202,"ECCENTRICITY":0.0021759,"INCLINATION":64.8586,"RA_OF_ASC_NODE":149.2904,"ARG_OF_PERICENTER":248.4686,"MEAN_ANOMALY":111.4132,"EPHEMERIS_TYPE":0,"CLASSIFICATION_TYPE":"U","NORAD_CAT_ID":39135,"ELEMENT_SET_NO":999,"REV_AT_EPOCH":55400,"BSTAR":0.00077668,"MEAN_MOTION_DOT":0.00030418,"MEAN_MOTION_DDOT":0},{"OBJECT_NAME":"BEESAT-2","OBJECT_ID":"2013-015G","EPOCH":"2023-04-26T20:29:29.286816","MEAN_MOTION":15.36608119,"ECCENTRICITY":0.0026573,"INCLINATION":64.8684,"RA_OF_ASC_NODE":159.5799,"ARG_OF_PERICENTER":283.2286,"MEAN_ANOMALY":76.5885,"EPHEMERIS_TYPE":0,"CLASSIFICATION_TYPE":"U","NORAD_CAT_ID":39136,"ELEMENT_SET_NO":999,"REV_AT_EPOCH":55378,"BSTAR":0.00080588,"MEAN_MOTION_DOT":0.00029181,"MEAN_MOTION_DDOT":0},{"OBJECT_NAME":"NEE-01 PEGASO","OBJECT_ID":"2013-018B","EPOCH":"2023-04-27T00:48:18.924768","MEAN_MOTION":14.82521915,"ECCENTRICITY":0.0015126,"INCLINATION":98.0026,"RA_OF_ASC_NODE":227.1434,"ARG_OF_PERICENTER":321.5176,"MEAN_ANOMALY":38.4958,"EPHEMERIS_TYPE":0,"CLASSIFICATION_TYPE":"U","NORAD_CAT_ID":39151,"ELEMENT_SET_NO":999,"REV_AT_EPOCH":54011,"BSTAR":0.0003298,"MEAN_MOTION_DOT":2.6e-5,"MEAN_MOTION_DDOT":0},{"OBJECT_NAME":"CUBEBUG-1 (CAPITAN BETO)","OBJECT_ID":"2013-018D","EPOCH":"2023-04-27T03:12:01.294848","MEAN_MOTION":14.83530156,"ECCENTRICITY":0.0014831,"INCLINATION":98.0313,"RA_OF_ASC_NODE":233.0231,"ARG_OF_PERICENTER":314.5332,"MEAN_ANOMALY":45.4669,"EPHEMERIS_TYPE":0,"CLASSIFICATION_TYPE":"U","NORAD_CAT_ID":39153,"ELEMENT_SET_NO":999,"REV_AT_EPOCH":54030,"BSTAR":0.00041662,"MEAN_MOTION_DOT":3.381e-5,"MEAN_MOTION_DDOT":0},{"OBJECT_NAME":"ESTCUBE 1","OBJECT_ID":"2013-021C","EPOCH":"2023-04-27T10:49:27.653664","MEAN_MOTION":14.74120403,"ECCENTRICITY":0.0010075,"INCLINATION":97.87,"RA_OF_ASC_NODE":191.1581,"ARG_OF_PERICENTER":128.2189,"MEAN_ANOMALY":231.9906,"EPHEMERIS_TYPE":0,"CLASSIFICATION_TYPE":"U","NORAD_CAT_ID":39161,"ELEMENT_SET_NO":999,"REV_AT_EPOCH":53570,"BSTAR":0.00029199,"MEAN_MOTION_DOT":1.877e-5,"MEAN_MOTION_DDOT":0},{"OBJECT_NAME":"FENGYUN 3C","OBJECT_ID":"2013-052A","EPOCH":"2023-04-27T03:44:37.561920","MEAN_MOTION":14.16027662,"ECCENTRICITY":0.0012419,"INCLINATION":98.4317,"RA_OF_ASC_NODE":133.995,"ARG_OF_PERICENTER":90.5338,"MEAN_ANOMALY":269.7255,"EPHEMERIS_TYPE":0,"CLASSIFICATION_TYPE":"U","NORAD_CAT_ID":39260,"ELEMENT_SET_NO":999,"REV_AT_EPOCH":49631,"BSTAR":0.00011972,"MEAN_MOTION_DOT":1.96e-6,"MEAN_MOTION_DDOT":0},{"OBJECT_NAME":"CASSIOPE","OBJECT_ID":"2013-055A","EPOCH":"2023-04-27T14:02:43.377792","MEAN_MOTION":14.50065694,"ECCENTRICITY":0.0577853,"INCLINATION":80.9581,"RA_OF_ASC_NODE":291.8665,"ARG_OF_PERICENTER":100.7034,"MEAN_ANOMALY":265.9737,"EPHEMERIS_TYPE":0,"CLASSIFICATION_TYPE":"U","NORAD_CAT_ID":39265,"ELEMENT_SET_NO":999,"REV_AT_EPOCH":49762,"BSTAR":0.00058472,"MEAN_MOTION_DOT":0.00024015,"MEAN_MOTION_DDOT":0},{"OBJECT_NAME":"ZACUBE-1 (TSHEPISOSAT)","OBJECT_ID":"2013-066B","EPOCH":"2023-04-26T16:16:30.691200","MEAN_MOTION":14.84563101,"ECCENTRICITY":0.0057136,"INCLINATION":97.6817,"RA_OF_ASC_NODE":80.1793,"ARG_OF_PERICENTER":96.6192,"MEAN_ANOMALY":264.1531,"EPHEMERIS_TYPE":0,"CLASSIFICATION_TYPE":"U","NORAD_CAT_ID":39417,"ELEMENT_SET_NO":999,"REV_AT_EPOCH":50955,"BSTAR":0.00038206,"MEAN_MOTION_DOT":3.266e-5,"MEAN_MOTION_DDOT":0},{"OBJECT_NAME":"CINEMA-3 (KHUSAT-2)","OBJECT_ID":"2013-066L","EPOCH":"2023-04-27T08:43:13.366560","MEAN_MOTION":14.7135725,"ECCENTRICITY":0.0099998,"INCLINATION":97.8258,"RA_OF_ASC_NODE":49.3184,"ARG_OF_PERICENTER":310.5866,"MEAN_ANOMALY":48.6671,"EPHEMERIS_TYPE":0,"CLASSIFICATION_TYPE":"U","NORAD_CAT_ID":39426,"ELEMENT_SET_NO":999,"REV_AT_EPOCH":50567,"BSTAR":0.00035258,"MEAN_MOTION_DOT":2.304e-5,"MEAN_MOTION_DDOT":0},{"OBJECT_NAME":"TRITON-1","OBJECT_ID":"2013-066M","EPOCH":"2023-04-27T08:30:09.839520","MEAN_MOTION":14.70737986,"ECCENTRICITY":0.0108136,"INCLINATION":97.8336,"RA_OF_ASC_NODE":45.1473,"ARG_OF_PERICENTER":341.4958,"MEAN_ANOMALY":18.2329,"EPHEMERIS_TYPE":0,"CLASSIFICATION_TYPE":"U","NORAD_CAT_ID":39427,"ELEMENT_SET_NO":999,"REV_AT_EPOCH":50507,"BSTAR":0.00059232,"MEAN_MOTION_DOT":3.903e-5,"MEAN_MOTION_DDOT":0},{"OBJECT_NAME":"DELFI-N3XT","OBJECT_ID":"2013-066N","EPOCH":"2023-04-26T17:33:42.548544","MEAN_MOTION":14.721365,"ECCENTRICITY":0.0111667,"INCLINATION":97.8319,"RA_OF_ASC_NODE":43.4114,"ARG_OF_PERICENTER":355.7009,"MEAN_ANOMALY":4.3229,"EPHEMERIS_TYPE":0,"CLASSIFICATION_TYPE":"U","NORAD_CAT_ID":39428,"ELEMENT_SET_NO":999,"REV_AT_EPOCH":50456,"BSTAR":0.00092035,"MEAN_MOTION_DOT":6.343e-5,"MEAN_MOTION_DDOT":0},{"OBJECT_NAME":"GOMX-1","OBJECT_ID":"2013-066Q","EPOCH":"2023-04-27T14:24:30.747168","MEAN_MOTION":14.61581204,"ECCENTRICITY":0.0147116,"INCLINATION":97.7855,"RA_OF_ASC_NODE":11.685,"ARG_OF_PERICENTER":132.9738,"MEAN_ANOMALY":228.3942,"EPHEMERIS_TYPE":0,"CLASSIFICATION_TYPE":"U","NORAD_CAT_ID":39430,"ELEMENT_SET_NO":999,"REV_AT_EPOCH":50215,"BSTAR":0.00052537,"MEAN_MOTION_DOT":2.997e-5,"MEAN_MOTION_DDOT":0},{"OBJECT_NAME":"BRITE-PL1 (LEM)","OBJECT_ID":"2013-066R","EPOCH":"2023-04-26T18:41:43.966176","MEAN_MOTION":14.47885083,"ECCENTRICITY":0.0199487,"INCLINATION":97.6806,"RA_OF_ASC_NODE":307.2705,"ARG_OF_PERICENTER":337.6044,"MEAN_ANOMALY":21.6529,"EPHEMERIS_TYPE":0,"CLASSIFICATION_TYPE":"U","NORAD_CAT_ID":39431,"ELEMENT_SET_NO":999,"REV_AT_EPOCH":49769,"BSTAR":0.00015646,"MEAN_MOTION_DOT":6.96e-6,"MEAN_MOTION_DDOT":0},{"OBJECT_NAME":"ICUBE-1","OBJECT_ID":"2013-066S","EPOCH":"2023-04-27T11:57:36.171648","MEAN_MOTION":14.95010483,"ECCENTRICITY":0.0027627,"INCLINATION":97.4836,"RA_OF_ASC_NODE":110.6773,"ARG_OF_PERICENTER":294.3453,"MEAN_ANOMALY":65.4885,"EPHEMERIS_TYPE":0,"CLASSIFICATION_TYPE":"U","NORAD_CAT_ID":39432,"ELEMENT_SET_NO":999,"REV_AT_EPOCH":51277,"BSTAR":0.00049137,"MEAN_MOTION_DOT":5.36e-5,"MEAN_MOTION_DDOT":0}]
